{
    "links": {
        "self": "http://www.neowsapp.com/rest/v1/neo/3599682?api_key=iIulBulltgU6a56xZRHN4H3l9WmuAYTsLGpBGhQ2"
    },
    "id": "3599682",
    "neo_reference_id": "3599682",
    "name": "(2012 DJ14)",
    "designation": "2012 DJ14",
    "nasa_jpl_url": "http://ssd.jpl.nasa.gov/sbdb.cgi?sstr=3599682",
    "absolute_magnitude_h": 25.8,
    "estimated_diameter": {
        "kilometers": {
            "estimated_diameter_min": 0.0183888672,
            "estimated_diameter_max": 0.0411187571
        },
        "meters": {
            "estimated_diameter_min": 18.388867207,
            "estimated_diameter_max": 41.1187571041
        },
        "miles": {
            "estimated_diameter_min": 0.0114263088,
            "estimated_diameter_max": 0.0255500032
        },
        "feet": {
            "estimated_diameter_min": 60.3309310875,
            "estimated_diameter_max": 134.9040630575
        }
    },
    "is_potentially_hazardous_asteroid": false,
    "close_approach_data": [
        {
            "close_approach_date": "2012-02-19",
            "close_approach_date_full": "2012-Feb-19 23:22",
            "epoch_date_close_approach": 1329693720000,
            "relative_velocity": {
                "kilometers_per_second": "13.8475935821",
                "kilometers_per_hour": "49851.3368957389",
                "miles_per_hour": "30975.6820839107"
            },
            "miss_distance": {
                "astronomical": "0.0184353501",
                "lunar": "7.1713511889",
                "kilometers": "2757889.107664287",
                "miles": "1713672.8274376806"
            },
            "orbiting_body": "Earth"
        }
    ],
    "orbital_data": {
        "orbit_id": "6",
        "orbit_determination_date": "2017-04-06 08:50:51",
        "first_observation_date": "2012-02-21",
        "last_observation_date": "2012-02-23",
        "data_arc_in_days": 2,
        "observations_used": 21,
        "orbit_uncertainty": "9",
        "minimum_orbit_intersection": ".0153191",
        "jupiter_tisserand_invariant": "2.901",
        "epoch_osculation": "2455980.5",
        "eccentricity": ".6671525948233921",
        "semi_major_axis": "2.830962135225232",
        "inclination": "14.6249127211568",
        "ascending_node_longitude": "151.4903115191549",
        "orbital_period": "1739.800766292131",
        "perihelion_distance": ".9422784008629481",
        "perihelion_argument": "326.5659891641415",
        "aphelion_distance": "4.719645869587517",
        "perihelion_time": "2455953.564889385764",
        "mean_anomaly": "5.573419674823151",
        "mean_motion": ".2069202445330755",
        "equinox": "J2000",
        "orbit_class": {
            "orbit_class_type": "APO",
            "orbit_class_description": "Near-Earth asteroid orbits which cross the Earth’s orbit similar to that of 1862 Apollo",
            "orbit_class_range": "a (semi-major axis) > 1.0 AU; q (perihelion) < 1.017 AU"
        }
    },
    "is_sentry_object": false
}